*******************************************************************************
JPL/HORIZONS             3714 Kenrussell (1983 TT1)        2023-Sep-04 11:25:07
Rec #:    3714 (+COV) Soln.date: 2023-Aug-23_12:56:36   # obs: 4131 (1973-2023)
 
IAU76/J2000 helio. ecliptic osc. elements (au, days, deg., period=Julian yrs):
 
  EPOCH=  2457791.5 ! 2017-Feb-07.00 (TDB)         Residual RMS= .24917
   EC= .1774447016864231   QR= 2.107766001766024   TP= 2457695.0599195627
   OM= 29.61407936490172   W=  22.75979690648056   IN= 14.36304841521737
   A= 2.562461157429072    MA= 23.17264996388463   ADIST= 3.017156313092121
   PER= 4.10199            N= .240280284           ANGMOM= .027099601
   DAN= 2.13279            DDN= 2.96731            L= 51.7320148
   B= 5.5070733            MOID= 1.12361002        TP= 2016-Nov-02.5599195627
 
Asteroid physical parameters (km, seconds, rotational period in hours):
   GM= n.a.                RAD= 5.63               ROTPER= 5.2518
   H= 12.83                G= .150                 B-V= n.a.
                           ALBEDO= .106            STYP= n.a.

ASTEROID comments: 
1: soln ref.= JPL#50, OCC=0
2: source=ORB
*******************************************************************************


*******************************************************************************
Ephemeris / API_USER Mon Sep  4 11:25:07 2023 Pasadena, USA      / Horizons
*******************************************************************************
Target body name: 3714 Kenrussell (1983 TT1)      {source: JPL#50}
Center body name: Solar System Barycenter (0)     {source: DE441}
Center-site name: BODY CENTER
*******************************************************************************
Start time      : A.D. 2023-Aug-12 00:00:00.0000 TDB
Stop  time      : A.D. 2023-Aug-13 00:00:00.0000 TDB
Step-size       : 2880 minutes
*******************************************************************************
Center geodetic : 0.0, 0.0, 0.0                   {E-lon(deg),Lat(deg),Alt(km)}
Center cylindric: 0.0, 0.0, 0.0                   {E-lon(deg),Dxy(km),Dz(km)}
Center radii    : (undefined)
Small perturbers: Yes                             {source: SB441-N16}
Output units    : KM-S
Calendar mode   : Mixed Julian/Gregorian
Output type     : GEOMETRIC cartesian states
Output format   : 2 (position and velocity)
Reference frame : Ecliptic of J2000.0
*******************************************************************************
Initial IAU76/J2000 heliocentric ecliptic osculating elements (au, days, deg.):
  EPOCH=  2457791.5 ! 2017-Feb-07.00 (TDB)         Residual RMS= .24917        
   EC= .1774447016864231   QR= 2.107766001766024   TP= 2457695.0599195627      
   OM= 29.61407936490172   W=  22.75979690648056   IN= 14.36304841521737       
  Equivalent ICRF heliocentric cartesian coordinates (au, au/d):
   X= 1.964611385550874E-01  Y= 1.755216478857823E+00  Z= 1.244771619320366E+00
  VX=-1.229850554583936E-02 VY= 8.906024626517389E-04 VZ= 2.524213361516251E-03
Asteroid physical parameters (km, seconds, rotational period in hours):        
   GM= n.a.                RAD= 5.63               ROTPER= 5.2518              
   H= 12.83                G= .150                 B-V= n.a.                   
                           ALBEDO= .106            STYP= n.a.                  
*******************************************************************************
JDTDB
   X     Y     Z
   VX    VY    VZ
*******************************************************************************
$$SOE
2460168.500000000 = A.D. 2023-Aug-12 00:00:00.0000 TDB 
 X = 8.544659024691615E+06 Y =-4.203863019613215E+08 Z =-9.466882402086005E+07
 VX= 1.612820907541084E+01 VY= 2.831608728658261E+00 VZ=-1.395251111212725E+00
$$EOE
*******************************************************************************
 
TIME

  Barycentric Dynamical Time ("TDB" or T_eph) output was requested. This
continuous coordinate time is equivalent to the relativistic proper time
of a clock at rest in a reference frame co-moving with the solar system
barycenter but outside the system's gravity well. It is the independent
variable in the solar system relativistic equations of motion.

  TDB runs at a uniform rate of one SI second per second and is independent
of irregularities in Earth's rotation.
 
CALENDAR SYSTEM

  Mixed calendar mode was active such that calendar dates after AD 1582-Oct-15
(if any) are in the modern Gregorian system. Dates prior to 1582-Oct-5 (if any)
are in the Julian calendar system, which is automatically extended for dates
prior to its adoption on 45-Jan-1 BC.  The Julian calendar is useful for
matching historical dates. The Gregorian calendar more accurately corresponds
to the Earth's orbital motion and seasons. A "Gregorian-only" calendar mode is
available if such physical events are the primary interest.

REFERENCE FRAME AND COORDINATES

  Ecliptic at the standard reference epoch

    Reference epoch: J2000.0
    X-Y plane: adopted Earth orbital plane at the reference epoch
               Note: IAU76 obliquity of 84381.448 arcseconds wrt ICRF X-Y plane
    X-axis   : ICRF
    Z-axis   : perpendicular to the X-Y plane in the directional (+ or -) sense
               of Earth's north pole at the reference epoch.

  Symbol meaning:

    JDTDB    Julian Day Number, Barycentric Dynamical Time
      X      X-component of position vector (km)
      Y      Y-component of position vector (km)
      Z      Z-component of position vector (km)
      VX     X-component of velocity vector (km/sec)                           
      VY     Y-component of velocity vector (km/sec)                           
      VZ     Z-component of velocity vector (km/sec)                           

ABERRATIONS AND CORRECTIONS

 Geometric state vectors have NO corrections or aberrations applied.

Computations by ...

    Solar System Dynamics Group, Horizons On-Line Ephemeris System
    4800 Oak Grove Drive, Jet Propulsion Laboratory
    Pasadena, CA  91109   USA

    General site: https://ssd.jpl.nasa.gov/
    Mailing list: https://ssd.jpl.nasa.gov/email_list.html
    System news : https://ssd.jpl.nasa.gov/horizons/news.html
    User Guide  : https://ssd.jpl.nasa.gov/horizons/manual.html
    Connect     : browser        https://ssd.jpl.nasa.gov/horizons/app.html#/x
                  API            https://ssd-api.jpl.nasa.gov/doc/horizons.html
                  command-line   telnet ssd.jpl.nasa.gov 6775
                  e-mail/batch   https://ssd.jpl.nasa.gov/ftp/ssd/hrzn_batch.txt
                  scripts        https://ssd.jpl.nasa.gov/ftp/ssd/SCRIPTS
    Author      : Jon.D.Giorgini@jpl.nasa.gov
*******************************************************************************
